[{"OBJECT_NAME":"SHIYAN-20C (SY-20C)","OBJECT_ID":"2022-142A","EPOCH":"2026-03-09T23:50:52.089216","MEAN_MOTION":14.29489925,"ECCENTRICITY":0.00131159,"INCLINATION":59.9943,"RA_OF_ASC_NODE":268.1651,"ARG_OF_PERICENTER":188.0899,"MEAN_ANOMALY":171.9927,"EPHEMERIS_TYPE":0,"CLASSIFICATION_TYPE":"U","NORAD_CAT_ID":54214,"ELEMENT_SET_NO":999,"REV_AT_EPOCH":17551,"BSTAR":7.6576353e-5,"MEAN_MOTION_DOT":6.0e-7,"MEAN_MOTION_DDOT":0},{"OBJECT_NAME":"COSMOS 1302","OBJECT_ID":"1981-084A","EPOCH":"2026-03-09T09:49:57.242784","MEAN_MOTION":14.35026157,"ECCENTRICITY":0.00194847,"INCLINATION":74.0265,"RA_OF_ASC_NODE":54.1353,"ARG_OF_PERICENTER":235.4889,"MEAN_ANOMALY":124.4424,"EPHEMERIS_TYPE":0,"CLASSIFICATION_TYPE":"U","NORAD_CAT_ID":12791,"ELEMENT_SET_NO":999,"REV_AT_EPOCH":32841,"BSTAR":7.7863114e-5,"MEAN_MOTION_DOT":1.96e-6,"MEAN_MOTION_DDOT":0}]
